start=new Date('2022-08-30T00:00:00.000Z').valueOf();
sats=[{"OBJECT_ID":"2022-053Q","SEMIMAJOR_AXIS":"6917.904","PERIAPSIS":"538.051","REV_AT_EPOCH":"130","BSTAR":"-0.00093788000000","MEAN_MOTION_DOT":"-0.00015181","NORAD_CAT_ID":"52670","OBJECT_TYPE":"PAYLOAD","LAUNCH_DATE":"2022-05-18","RA_OF_ASC_NODE":"175.1598","EPOCH":"2022-08-29T22:00:00.999936","MEAN_MOTION_DDOT":"0.0000000000000","APOAPSIS":"541.487","CLASSIFICATION_TYPE":"U","TIME_SYSTEM":"UTC","PERIOD":"95.438","COUNTRY_CODE":"US","CENTER_NAME":"EARTH","EPHEMERIS_TYPE":"0","ELEMENT_SET_NO":"999","REF_FRAME":"TEME","MEAN_ELEMENT_THEORY":"SGP4","SITE":"AFETR","TLE_LINE1":"1 52670U 22053Q   22241.91667824 -.00015181  00000-0 -93788-3 0  9992","DECAY_DATE":null,"MEAN_MOTION":"15.08832215","INCLINATION":"53.2197","FILE":"3551093","RCS_SIZE":"LARGE","MEAN_ANOMALY":"87.3223","ARG_OF_PERICENTER":"60.5060","OBJECT_NAME":"STARLINK-4075","GP_ID":"211289249","ECCENTRICITY":"0.00024830","TLE_LINE2":"2 52670  53.2197 175.1598 0002483  60.5060  87.3223 15.08832215  1303"},{"OBJECT_ID":"2022-053R","REV_AT_EPOCH":"130","BSTAR":"-0.00095602000000","MEAN_MOTION_DOT":"-0.00015473","SEMIMAJOR_AXIS":"6917.872","PERIAPSIS":"538.052","NORAD_CAT_ID":"52671","OBJECT_TYPE":"PAYLOAD","MEAN_MOTION_DDOT":"0.0000000000000","EPOCH":"2022-08-29T22:00:00.999936","LAUNCH_DATE":"2022-05-18","RA_OF_ASC_NODE":"175.1560","APOAPSIS":"541.421","CLASSIFICATION_TYPE":"U","TIME_SYSTEM":"UTC","COUNTRY_CODE":"US","PERIOD":"95.437","ELEMENT_SET_NO":"999","MEAN_ELEMENT_THEORY":"SGP4","REF_FRAME":"TEME","EPHEMERIS_TYPE":"0","CENTER_NAME":"EARTH","TLE_LINE1":"1 52671U 22053R   22241.91667824 -.00015473  00000-0 -95602-3 0  9994","MEAN_MOTION":"15.08842756","DECAY_DATE":null,"SITE":"AFETR","FILE":"3551093","INCLINATION":"53.2189","RCS_SIZE":"LARGE","MEAN_ANOMALY":"193.6021","ARG_OF_PERICENTER":"59.4253","OBJECT_NAME":"STARLINK-4071","TLE_LINE2":"2 52671  53.2189 175.1560 0002435  59.4253 193.6021 15.08842756  1300","GP_ID":"211289809","ECCENTRICITY":"0.00024350"},{"APOAPSIS":"541.531","CLASSIFICATION_TYPE":"U","TIME_SYSTEM":"UTC","PERIOD":"95.438","COUNTRY_CODE":"US","OBJECT_ID":"2022-053S","PERIAPSIS":"538.028","SEMIMAJOR_AXIS":"6917.915","MEAN_MOTION_DOT":"-0.00014521","REV_AT_EPOCH":"130","BSTAR":"-0.00089633000000","NORAD_CAT_ID":"52672","OBJECT_TYPE":"PAYLOAD","RA_OF_ASC_NODE":"175.1599","LAUNCH_DATE":"2022-05-18","EPOCH":"2022-08-29T22:00:00.999936","MEAN_MOTION_DDOT":"0.0000000000000","RCS_SIZE":"LARGE","OBJECT_NAME":"STARLINK-4073","MEAN_ANOMALY":"135.9487","ARG_OF_PERICENTER":"57.0853","GP_ID":"211290098","ECCENTRICITY":"0.00025320","TLE_LINE2":"2 52672  53.2192 175.1599 0002532  57.0853 135.9487 15.08828755  1303","EPHEMERIS_TYPE":"0","CENTER_NAME":"EARTH","MEAN_ELEMENT_THEORY":"SGP4","REF_FRAME":"TEME","ELEMENT_SET_NO":"999","SITE":"AFETR","MEAN_MOTION":"15.08828755","DECAY_DATE":null,"TLE_LINE1":"1 52672U 22053S   22241.91667824 -.00014521  00000-0 -89633-3 0  9995","INCLINATION":"53.2192","FILE":"3551093"},{"FILE":"3551093","INCLINATION":"53.2172","MEAN_MOTION":"15.08844934","DECAY_DATE":null,"TLE_LINE1":"1 52673U 22053T   22241.91667824 -.00017703  00000-0 -10967-2 0  9994","SITE":"AFETR","REF_FRAME":"TEME","MEAN_ELEMENT_THEORY":"SGP4","ELEMENT_SET_NO":"999","EPHEMERIS_TYPE":"0","CENTER_NAME":"EARTH","TLE_LINE2":"2 52673  53.2172 175.1463 0002394  60.0742 232.9591 15.08844934  1300","ECCENTRICITY":"0.00023940","GP_ID":"211289537","OBJECT_NAME":"STARLINK-3976","MEAN_ANOMALY":"232.9591","ARG_OF_PERICENTER":"60.0742","RCS_SIZE":"LARGE","MEAN_MOTION_DDOT":"0.0000000000000","LAUNCH_DATE":"2022-05-18","EPOCH":"2022-08-29T22:00:00.999936","RA_OF_ASC_NODE":"175.1463","NORAD_CAT_ID":"52673","OBJECT_TYPE":"PAYLOAD","MEAN_MOTION_DOT":"-0.00017703","REV_AT_EPOCH":"130","BSTAR":"-0.00109670000000","PERIAPSIS":"538.074","SEMIMAJOR_AXIS":"6917.865","OBJECT_ID":"2022-053T","COUNTRY_CODE":"US","PERIOD":"95.437","TIME_SYSTEM":"UTC","CLASSIFICATION_TYPE":"U","APOAPSIS":"541.386"},{"RCS_SIZE":"LARGE","OBJECT_NAME":"STARLINK-3936","ARG_OF_PERICENTER":"57.1780","MEAN_ANOMALY":"155.8371","TLE_LINE2":"2 52674  53.2185 175.1634 0002597  57.1780 155.8371 15.08835695  1302","ECCENTRICITY":"0.00025970","GP_ID":"211289666","REF_FRAME":"TEME","MEAN_ELEMENT_THEORY":"SGP4","ELEMENT_SET_NO":"999","EPHEMERIS_TYPE":"0","CENTER_NAME":"EARTH","DECAY_DATE":null,"MEAN_MOTION":"15.08835695","TLE_LINE1":"1 52674U 22053U   22241.91667824 -.00012932  00000-0 -79591-3 0  9993","SITE":"AFETR","FILE":"3551093","INCLINATION":"53.2185","APOAPSIS":"541.555","CLASSIFICATION_TYPE":"U","TIME_SYSTEM":"UTC","COUNTRY_CODE":"US","PERIOD":"95.438","OBJECT_ID":"2022-053U","MEAN_MOTION_DOT":"-0.00012932","REV_AT_EPOCH":"130","BSTAR":"-0.00079591000000","PERIAPSIS":"537.962","SEMIMAJOR_AXIS":"6917.894","OBJECT_TYPE":"PAYLOAD","NORAD_CAT_ID":"52674","MEAN_MOTION_DDOT":"0.0000000000000","RA_OF_ASC_NODE":"175.1634","LAUNCH_DATE":"2022-05-18","EPOCH":"2022-08-29T22:00:00.999936"},{"FILE":"3551093","INCLINATION":"53.2147","MEAN_ELEMENT_THEORY":"SGP4","REF_FRAME":"TEME","ELEMENT_SET_NO":"999","EPHEMERIS_TYPE":"0","CENTER_NAME":"EARTH","DECAY_DATE":null,"MEAN_MOTION":"15.08848024","TLE_LINE1":"1 52675U 22053V   22241.91667824 -.00019520  00000-0 -12113-2 0  9990","SITE":"AFETR","TLE_LINE2":"2 52675  53.2147 165.1583 0002502  59.2797 248.7625 15.08848024  1304","GP_ID":"211289394","ECCENTRICITY":"0.00025020","RCS_SIZE":"LARGE","OBJECT_NAME":"STARLINK-3934","ARG_OF_PERICENTER":"59.2797","MEAN_ANOMALY":"248.7625","NORAD_CAT_ID":"52675","OBJECT_TYPE":"PAYLOAD","MEAN_MOTION_DDOT":"0.0000000000000","LAUNCH_DATE":"2022-05-18","RA_OF_ASC_NODE":"165.1583","EPOCH":"2022-08-29T22:00:00.999936","OBJECT_ID":"2022-053V","MEAN_MOTION_DOT":"-0.00019520","REV_AT_EPOCH":"130","BSTAR":"-0.00121130000000","PERIAPSIS":"537.990","SEMIMAJOR_AXIS":"6917.856","TIME_SYSTEM":"UTC","COUNTRY_CODE":"US","PERIOD":"95.437","APOAPSIS":"541.452","CLASSIFICATION_TYPE":"U"},{"NORAD_CAT_ID":"52676","OBJECT_TYPE":"PAYLOAD","EPOCH":"2022-08-29T22:00:00.999936","LAUNCH_DATE":"2022-05-18","RA_OF_ASC_NODE":"175.1515","MEAN_MOTION_DDOT":"0.0000000000000","OBJECT_ID":"2022-053W","SEMIMAJOR_AXIS":"6917.862","PERIAPSIS":"537.979","REV_AT_EPOCH":"130","BSTAR":"-0.00097392000000","MEAN_MOTION_DOT":"-0.00015758","TIME_SYSTEM":"UTC","PERIOD":"95.437","COUNTRY_CODE":"US","APOAPSIS":"541.476","CLASSIFICATION_TYPE":"U","INCLINATION":"53.2179","FILE":"3551093","EPHEMERIS_TYPE":"0","CENTER_NAME":"EARTH","ELEMENT_SET_NO":"999","MEAN_ELEMENT_THEORY":"SGP4","REF_FRAME":"TEME","SITE":"AFETR","TLE_LINE1":"1 52676U 22053W   22241.91667824 -.00015758  00000-0 -97392-3 0  9993","DECAY_DATE":null,"MEAN_MOTION":"15.08845860","GP_ID":"211290256","ECCENTRICITY":"0.00025270","TLE_LINE2":"2 52676  53.2179 175.1515 0002527  61.2148 211.8138 15.08845860  1301","RCS_SIZE":"LARGE","MEAN_ANOMALY":"211.8138","ARG_OF_PERICENTER":"61.2148","OBJECT_NAME":"STARLINK-4006"},{"OBJECT_NAME":"STARLINK-4028","ARG_OF_PERICENTER":"61.5438","MEAN_ANOMALY":"286.4878","RCS_SIZE":"LARGE","GP_ID":"211260852","ECCENTRICITY":"0.00022120","TLE_LINE2":"2 52677  53.2151 165.1567 0002212  61.5438 286.4878 15.08837970 16335","SITE":"AFETR","MEAN_MOTION":"15.08837970","DECAY_DATE":null,"TLE_LINE1":"1 52677U 22053X   22241.91667824 -.00021274  00000-0 -13225-2 0  9996","CENTER_NAME":"EARTH","EPHEMERIS_TYPE":"0","REF_FRAME":"TEME","MEAN_ELEMENT_THEORY":"SGP4","ELEMENT_SET_NO":"999","INCLINATION":"53.2151","FILE":"3550917","CLASSIFICATION_TYPE":"U","APOAPSIS":"541.282","PERIOD":"95.438","COUNTRY_CODE":"US","TIME_SYSTEM":"UTC","PERIAPSIS":"538.221","SEMIMAJOR_AXIS":"6917.887","MEAN_MOTION_DOT":"-0.00021274","BSTAR":"-0.00132250000000","REV_AT_EPOCH":"1633","OBJECT_ID":"2022-053X","LAUNCH_DATE":"2022-05-18","EPOCH":"2022-08-29T22:00:00.999936","RA_OF_ASC_NODE":"165.1567","MEAN_MOTION_DDOT":"0.0000000000000","OBJECT_TYPE":"PAYLOAD","NORAD_CAT_ID":"52677"},{"TLE_LINE2":"2 52678  53.2141 165.1564 0002499  52.5343 250.3047 15.08848680  1303","ECCENTRICITY":"0.00024990","GP_ID":"211289250","OBJECT_NAME":"STARLINK-4074","ARG_OF_PERICENTER":"52.5343","MEAN_ANOMALY":"250.3047","RCS_SIZE":"LARGE","FILE":"3551093","INCLINATION":"53.2141","MEAN_MOTION":"15.08848680","DECAY_DATE":null,"TLE_LINE1":"1 52678U 22053Y   22241.91667824 -.00019335  00000-0 -11996-2 0  9995","SITE":"AFETR","MEAN_ELEMENT_THEORY":"SGP4","REF_FRAME":"TEME","ELEMENT_SET_NO":"999","EPHEMERIS_TYPE":"0","CENTER_NAME":"EARTH","COUNTRY_CODE":"US","PERIOD":"95.437","TIME_SYSTEM":"UTC","CLASSIFICATION_TYPE":"U","APOAPSIS":"541.448","MEAN_MOTION_DDOT":"0.0000000000000","LAUNCH_DATE":"2022-05-18","EPOCH":"2022-08-29T22:00:00.999936","RA_OF_ASC_NODE":"165.1564","NORAD_CAT_ID":"52678","OBJECT_TYPE":"PAYLOAD","MEAN_MOTION_DOT":"-0.00019335","BSTAR":"-0.00119960000000","REV_AT_EPOCH":"130","PERIAPSIS":"537.990","SEMIMAJOR_AXIS":"6917.854","OBJECT_ID":"2022-053Y"},{"MEAN_ELEMENT_THEORY":"SGP4","REF_FRAME":"TEME","ELEMENT_SET_NO":"999","EPHEMERIS_TYPE":"0","CENTER_NAME":"EARTH","DECAY_DATE":null,"MEAN_MOTION":"15.08834766","TLE_LINE1":"1 52679U 22053Z   22241.91667824 -.00024873  00000-0 -15502-2 0  9996","SITE":"AFETR","FILE":"3550918","INCLINATION":"53.2159","RCS_SIZE":"LARGE","OBJECT_NAME":"STARLINK-4031","MEAN_ANOMALY":"344.4863","ARG_OF_PERICENTER":"63.5498","TLE_LINE2":"2 52679  53.2159 165.1552 0002410  63.5498 344.4863 15.08834766 16336","ECCENTRICITY":"0.00024100","GP_ID":"211261287","OBJECT_ID":"2022-053Z","MEAN_MOTION_DOT":"-0.00024873","REV_AT_EPOCH":"1633","BSTAR":"-0.00155020000000","PERIAPSIS":"538.094","SEMIMAJOR_AXIS":"6917.896","OBJECT_TYPE":"PAYLOAD","NORAD_CAT_ID":"52679","MEAN_MOTION_DDOT":"0.0000000000000","RA_OF_ASC_NODE":"165.1552","LAUNCH_DATE":"2022-05-18","EPOCH":"2022-08-29T22:00:00.999936","APOAPSIS":"541.429","CLASSIFICATION_TYPE":"U","TIME_SYSTEM":"UTC","COUNTRY_CODE":"US","PERIOD":"95.438"}];
